METHANESAT              
1 59101U 24043D   26078.27934520  .00002301  00000+0  20167-3 0  9998
2 59101  97.8287 208.9815 0009742 313.2533  46.7875 14.97641643111199
GOSAT-GW (IBUKI GW)     
1 64694U 25141A   26065.03170321  .00001373  00000+0  25032-3 0  9996
2 64694  98.0504   4.0681 0001432  83.7436 276.3932 14.67569112 36718
GHGSAT-C1               
1 46278U 20061G   26078.25825583  .00031302  00000+0  31744-3 0  9997
2 46278  97.2151 160.8393 0001491  62.5991 297.5421 15.65184357309389
GHGSAT-C12              
1 64529U 25135B   26078.25531539  .00003479  00000+0  16636-3 0  9995
2 64529  97.4632 193.9596 0006389 121.0893 239.0969 15.19639694 41164
GHGSAT-C13              
1 64548U 25135W   26078.30090229  .00003054  00000+0  14368-3 0  9997
2 64548  97.4660 194.4416 0002616  82.4365 277.7168 15.20322183 41193
GHGSAT-C2               
1 47509U 21006DA  26078.12496061  .00005930  00000+0  16779-3 0  9995
2 47509  97.2271 126.9393 0006779 123.5574 236.6319 15.36657180286013
GHGSAT-C3               
1 52737U 22057F   26078.33685093  .00007327  00000+0  23154-3 0  9996
2 52737  97.6448 220.7810 0007248  84.9219 275.2849 15.33103556211764
GHGSAT-C4               
1 52746U 22057Q   26078.29127456  .00007382  00000+0  23335-3 0  9997
2 52746  97.6374 219.6565 0007328  72.4148 287.7893 15.33090762211769
GHGSAT-C5               
1 52744U 22057N   26078.30920277  .00007278  00000+0  23014-3 0  9997
2 52744  97.6538 222.2216 0008229  81.2108 279.0065 15.33080595211765
GHGSAT-C6               
1 56204U 23054AC  26078.28997741  .00014509  00000+0  25814-3 0  9992
2 56204  97.3126 346.7363 0007886  25.6592 334.5049 15.50220872164514
GHGSAT-C7               
1 56209U 23054AH  26078.26853817  .00010738  00000+0  20783-3 0  9990
2 56209  97.3074 345.6020 0008354  18.6266 341.5289 15.47879913164471
GHGSAT-C8               
1 56186U 23054J   26078.26111178  .00010974  00000+0  19568-3 0  9992
2 56186  97.3083 346.0917 0006731  50.3529 309.8315 15.50237544164498
SENTINEL-5P             
1 42969U 17064A   26078.26123063  .00000054  00000+0  46806-4 0  9990
2 42969  98.7896  21.0461 0001154  92.8352 267.2956 14.19501588436803
ENMAP                   
1 52159U 22033C   26078.27892353  .00000411  00000+0  68592-4 0  9993
2 52159  97.9790 161.8058 0001199 103.1103 257.0240 14.74979152213402
PRISMA                  
1 44072U 19015A   26078.24107476  .00000900  00000+0  11543-3 0  9992
2 44072  97.8705 154.3318 0001514  87.4940 272.6448 14.83648115378713
SENTINEL-2A             
1 40697U 15028A   26078.28468332 -.00000164  00000+0 -45791-4 0  9993
2 40697  98.5644 154.4371 0001277  98.6199 261.5129 14.30815958560874
SENTINEL-2B             
1 42063U 17013A   26078.27738997 -.00000148  00000+0 -39952-4 0  9998
2 42063  98.5645 154.3314 0001166  96.5401 263.5915 14.30822730471782
SENTINEL-2C             
1 60989U 24157A   26078.17257486  .00000119  00000+0  61990-4 0  9993
2 60989  98.5673 154.2493 0000935 112.0229 248.1053 14.30817667 80110
LANDSAT 8               
1 39084U 13008A   26078.27406943  .00000328  00000+0  82720-4 0  9999
2 39084  98.1901 149.8417 0001229  91.0611 269.0728 14.57119311684803
LANDSAT 9               
1 49260U 21088A   26078.10247690  .00000338  00000+0  85063-4 0  9991
2 49260  98.1921 149.7362 0001135  96.2564 263.8764 14.57134172237886
TANAGER-1               
1 60507U 24149AR  26078.22294546  .00017538  00000+0  39186-3 0  9998
2 60507  97.3772 171.7322 0007657 222.2858 137.7800 15.43551490 89158
